[{"OBJECT_NAME":"IRIDIUM 163","OBJECT_ID":"2018-061G","EPOCH":"2026-03-09T13:59:42.401760","MEAN_MOTION":14.34217733,"ECCENTRICITY":0.0002172,"INCLINATION":86.3916,"RA_OF_ASC_NODE":98.3882,"ARG_OF_PERICENTER":91.0803,"MEAN_ANOMALY":269.0641,"EPHEMERIS_TYPE":0,"CLASSIFICATION_TYPE":"U","NORAD_CAT_ID":43575,"ELEMENT_SET_NO":999,"REV_AT_EPOCH":39910,"BSTAR":2.0406e-5,"MEAN_MOTION_DOT":7.7e-7,"MEAN_MOTION_DDOT":0},{"OBJECT_NAME":"FENGYUN 1C DEB","OBJECT_ID":"1999-025DSH","EPOCH":"2026-02-21T07:45:16.815456","MEAN_MOTION":14.13297206,"ECCENTRICITY":0.01343198,"INCLINATION":98.141,"RA_OF_ASC_NODE":252.6397,"ARG_OF_PERICENTER":308.8659,"MEAN_ANOMALY":50.0593,"EPHEMERIS_TYPE":0,"CLASSIFICATION_TYPE":"U","NORAD_CAT_ID":36160,"ELEMENT_SET_NO":999,"REV_AT_EPOCH":61049,"BSTAR":0.00020349178,"MEAN_MOTION_DOT":3.76e-6,"MEAN_MOTION_DDOT":0}]
